HULIANWANG DIGUI-113    
1 66923U 25285J   25365.20751247 -.00000067  00000+0  55468-4 0  9992
2 66923  50.0051  42.0237 0002098 152.9938 207.1075 14.00463499  3503
CZ-8A R/B               
1 66924U 25285K   25365.03359281  .00000204  00000+0  13045-3 0  9992
2 66924  50.0087  38.2830 0119204 171.2231 189.0806 14.30510949  3547
STARLINK-35945          
1 66925U 25286A   25365.16668980 -.00185249  00000+0 -33921-2 0  9996
2 66925  53.1588 319.5754 0001171  79.3665 349.4718 15.49393166  4951
STARLINK-35942          
1 66926U 25286B   25364.90256373  .00105807  00000+0  19140-2 0  9994
2 66926  53.1604 320.9080 0004270 216.3148 143.7572 15.48863654  4845
STARLINK-35943          
1 66927U 25286C   25365.09557884  .00130607  00000+0  23166-2 0  9996
2 66927  53.1600 319.9788 0001245  51.9602 308.1519 15.49317801  4872
STARLINK-35944          
1 66928U 25286D   25365.09623483  .00402710  00000+0  67809-2 0  9995
2 66928  53.1598 319.9845 0002932 208.2802 151.8049 15.49732173  4870
STARLINK-36169          
1 66929U 25286E   25365.09523602  .00065976  00000+0  11832-2 0  9992
2 66929  53.1604 319.9753 0001476  99.4219 260.6957 15.49335411  4872
STARLINK-36206          
1 66930U 25286F   25365.09489230  .00054328  00000+0  97735-3 0  9998
2 66930  53.1596 319.9729 0000984  73.1616 286.9501 15.49330350  4873
STARLINK-36130          
1 66931U 25286G   25365.16668980 -.01871753  00000+0 -47814-1 0  9991
2 66931  53.1595 319.6672 0001364  90.8631 292.0412 15.42204697  4958
STARLINK-36177          
1 66932U 25286H   25365.09420551  .00063896  00000+0  11465-2 0  9996
2 66932  53.1591 319.9686 0001001  77.3511 282.7610 15.49333279  4871
STARLINK-36157          
1 66933U 25286J   25365.02935574  .00122147  00000+0  21679-2 0  9999
2 66933  53.1592 320.2753 0001265  62.1392 297.9745 15.49337280  4866
STARLINK-36153          
1 66934U 25286K   25365.09358604 -.00126176  00000+0 -23348-2 0  9993
2 66934  53.1597 319.9659 0004479   2.0537 358.0490 15.48834956  4874
