CCSDS_OMM_VERS = 2.0
CREATION_DATE  = 
ORIGINATOR     = 

OBJECT_NAME    = HULIANWANG DIGUI-113
OBJECT_ID      = 2025-285J
CENTER_NAME    = EARTH
REF_FRAME      = TEME
TIME_SYSTEM    = UTC
MEAN_ELEMENT_THEORY = SGP/SGP4

EPOCH          = 2025-12-31T04:58:49.077408
MEAN_MOTION    = 14.00463499
ECCENTRICITY   = .0002098
INCLINATION    = 50.0051
RA_OF_ASC_NODE = 42.0237
ARG_OF_PERICENTER = 152.9938
MEAN_ANOMALY   = 207.1075

EPHEMERIS_TYPE = 0
CLASSIFICATION_TYPE = U
NORAD_CAT_ID   = 66923
ELEMENT_SET_NO = 999
REV_AT_EPOCH   = 350
BSTAR          = .55468E-4
MEAN_MOTION_DOT = -.67E-6
MEAN_MOTION_DDOT = 0

CCSDS_OMM_VERS = 2.0
CREATION_DATE  = 
ORIGINATOR     = 

OBJECT_NAME    = CZ-8A R/B
OBJECT_ID      = 2025-285K
CENTER_NAME    = EARTH
REF_FRAME      = TEME
TIME_SYSTEM    = UTC
MEAN_ELEMENT_THEORY = SGP/SGP4

EPOCH          = 2025-12-31T00:48:22.418784
MEAN_MOTION    = 14.30510949
ECCENTRICITY   = .0119204
INCLINATION    = 50.0087
RA_OF_ASC_NODE = 38.2830
ARG_OF_PERICENTER = 171.2231
MEAN_ANOMALY   = 189.0806

EPHEMERIS_TYPE = 0
CLASSIFICATION_TYPE = U
NORAD_CAT_ID   = 66924
ELEMENT_SET_NO = 999
REV_AT_EPOCH   = 354
BSTAR          = .13045E-3
MEAN_MOTION_DOT = .204E-5
MEAN_MOTION_DDOT = 0

CCSDS_OMM_VERS = 2.0
CREATION_DATE  = 
ORIGINATOR     = 

OBJECT_NAME    = STARLINK-35945
OBJECT_ID      = 2025-286A
CENTER_NAME    = EARTH
REF_FRAME      = TEME
TIME_SYSTEM    = UTC
MEAN_ELEMENT_THEORY = SGP/SGP4

EPOCH          = 2025-12-31T04:00:01.998720
MEAN_MOTION    = 15.49393166
ECCENTRICITY   = .0001171
INCLINATION    = 53.1588
RA_OF_ASC_NODE = 319.5754
ARG_OF_PERICENTER = 79.3665
MEAN_ANOMALY   = 349.4718

EPHEMERIS_TYPE = 0
CLASSIFICATION_TYPE = U
NORAD_CAT_ID   = 66925
ELEMENT_SET_NO = 999
REV_AT_EPOCH   = 495
BSTAR          = -.33921E-2
MEAN_MOTION_DOT = -.185249E-2
MEAN_MOTION_DDOT = 0

CCSDS_OMM_VERS = 2.0
CREATION_DATE  = 
ORIGINATOR     = 

OBJECT_NAME    = STARLINK-35942
OBJECT_ID      = 2025-286B
CENTER_NAME    = EARTH
REF_FRAME      = TEME
TIME_SYSTEM    = UTC
MEAN_ELEMENT_THEORY = SGP/SGP4

EPOCH          = 2025-12-30T21:39:41.506272
MEAN_MOTION    = 15.48863654
ECCENTRICITY   = .000427
INCLINATION    = 53.1604
RA_OF_ASC_NODE = 320.9080
ARG_OF_PERICENTER = 216.3148
MEAN_ANOMALY   = 143.7572

EPHEMERIS_TYPE = 0
CLASSIFICATION_TYPE = U
NORAD_CAT_ID   = 66926
ELEMENT_SET_NO = 999
REV_AT_EPOCH   = 484
BSTAR          = .1914E-2
MEAN_MOTION_DOT = .105807E-2
MEAN_MOTION_DDOT = 0

CCSDS_OMM_VERS = 2.0
CREATION_DATE  = 
ORIGINATOR     = 

OBJECT_NAME    = STARLINK-35943
OBJECT_ID      = 2025-286C
CENTER_NAME    = EARTH
REF_FRAME      = TEME
TIME_SYSTEM    = UTC
MEAN_ELEMENT_THEORY = SGP/SGP4

EPOCH          = 2025-12-31T02:17:38.011776
MEAN_MOTION    = 15.49317801
ECCENTRICITY   = .0001245
INCLINATION    = 53.1600
RA_OF_ASC_NODE = 319.9788
ARG_OF_PERICENTER = 51.9602
MEAN_ANOMALY   = 308.1519

EPHEMERIS_TYPE = 0
CLASSIFICATION_TYPE = U
NORAD_CAT_ID   = 66927
ELEMENT_SET_NO = 999
REV_AT_EPOCH   = 487
BSTAR          = .23166E-2
MEAN_MOTION_DOT = .130607E-2
MEAN_MOTION_DDOT = 0

CCSDS_OMM_VERS = 2.0
CREATION_DATE  = 
ORIGINATOR     = 

OBJECT_NAME    = STARLINK-35944
OBJECT_ID      = 2025-286D
CENTER_NAME    = EARTH
REF_FRAME      = TEME
TIME_SYSTEM    = UTC
MEAN_ELEMENT_THEORY = SGP/SGP4

EPOCH          = 2025-12-31T02:18:34.689312
MEAN_MOTION    = 15.49732173
ECCENTRICITY   = .0002932
INCLINATION    = 53.1598
RA_OF_ASC_NODE = 319.9845
ARG_OF_PERICENTER = 208.2802
MEAN_ANOMALY   = 151.8049

EPHEMERIS_TYPE = 0
CLASSIFICATION_TYPE = U
NORAD_CAT_ID   = 66928
ELEMENT_SET_NO = 999
REV_AT_EPOCH   = 487
BSTAR          = .67809E-2
MEAN_MOTION_DOT = .40271E-2
MEAN_MOTION_DDOT = 0

CCSDS_OMM_VERS = 2.0
CREATION_DATE  = 
ORIGINATOR     = 

OBJECT_NAME    = STARLINK-36169
OBJECT_ID      = 2025-286E
CENTER_NAME    = EARTH
REF_FRAME      = TEME
TIME_SYSTEM    = UTC
MEAN_ELEMENT_THEORY = SGP/SGP4

EPOCH          = 2025-12-31T02:17:08.392128
MEAN_MOTION    = 15.49335411
ECCENTRICITY   = .0001476
INCLINATION    = 53.1604
RA_OF_ASC_NODE = 319.9753
ARG_OF_PERICENTER = 99.4219
MEAN_ANOMALY   = 260.6957

EPHEMERIS_TYPE = 0
CLASSIFICATION_TYPE = U
NORAD_CAT_ID   = 66929
ELEMENT_SET_NO = 999
REV_AT_EPOCH   = 487
BSTAR          = .11832E-2
MEAN_MOTION_DOT = .65976E-3
MEAN_MOTION_DDOT = 0

CCSDS_OMM_VERS = 2.0
CREATION_DATE  = 
ORIGINATOR     = 

OBJECT_NAME    = STARLINK-36206
OBJECT_ID      = 2025-286F
CENTER_NAME    = EARTH
REF_FRAME      = TEME
TIME_SYSTEM    = UTC
MEAN_ELEMENT_THEORY = SGP/SGP4

EPOCH          = 2025-12-31T02:16:38.694720
MEAN_MOTION    = 15.49330350
ECCENTRICITY   = .0000984
INCLINATION    = 53.1596
RA_OF_ASC_NODE = 319.9729
ARG_OF_PERICENTER = 73.1616
MEAN_ANOMALY   = 286.9501

EPHEMERIS_TYPE = 0
CLASSIFICATION_TYPE = U
NORAD_CAT_ID   = 66930
ELEMENT_SET_NO = 999
REV_AT_EPOCH   = 487
BSTAR          = .97735E-3
MEAN_MOTION_DOT = .54328E-3
MEAN_MOTION_DDOT = 0

CCSDS_OMM_VERS = 2.0
CREATION_DATE  = 
ORIGINATOR     = 

OBJECT_NAME    = STARLINK-36130
OBJECT_ID      = 2025-286G
CENTER_NAME    = EARTH
REF_FRAME      = TEME
TIME_SYSTEM    = UTC
MEAN_ELEMENT_THEORY = SGP/SGP4

EPOCH          = 2025-12-31T04:00:01.998720
MEAN_MOTION    = 15.42204697
ECCENTRICITY   = .0001364
INCLINATION    = 53.1595
RA_OF_ASC_NODE = 319.6672
ARG_OF_PERICENTER = 90.8631
MEAN_ANOMALY   = 292.0412

EPHEMERIS_TYPE = 0
CLASSIFICATION_TYPE = U
NORAD_CAT_ID   = 66931
ELEMENT_SET_NO = 999
REV_AT_EPOCH   = 495
BSTAR          = -.47814E-1
MEAN_MOTION_DOT = -.1871753E-1
MEAN_MOTION_DDOT = 0

CCSDS_OMM_VERS = 2.0
CREATION_DATE  = 
ORIGINATOR     = 

OBJECT_NAME    = STARLINK-36177
OBJECT_ID      = 2025-286H
CENTER_NAME    = EARTH
REF_FRAME      = TEME
TIME_SYSTEM    = UTC
MEAN_ELEMENT_THEORY = SGP/SGP4

EPOCH          = 2025-12-31T02:15:39.356064
MEAN_MOTION    = 15.49333279
ECCENTRICITY   = .0001001
INCLINATION    = 53.1591
RA_OF_ASC_NODE = 319.9686
ARG_OF_PERICENTER = 77.3511
MEAN_ANOMALY   = 282.7610

EPHEMERIS_TYPE = 0
CLASSIFICATION_TYPE = U
NORAD_CAT_ID   = 66932
ELEMENT_SET_NO = 999
REV_AT_EPOCH   = 487
BSTAR          = .11465E-2
MEAN_MOTION_DOT = .63896E-3
MEAN_MOTION_DDOT = 0

CCSDS_OMM_VERS = 2.0
CREATION_DATE  = 
ORIGINATOR     = 

OBJECT_NAME    = STARLINK-36157
OBJECT_ID      = 2025-286J
CENTER_NAME    = EARTH
REF_FRAME      = TEME
TIME_SYSTEM    = UTC
MEAN_ELEMENT_THEORY = SGP/SGP4

EPOCH          = 2025-12-31T00:42:16.335936
MEAN_MOTION    = 15.49337280
ECCENTRICITY   = .0001265
INCLINATION    = 53.1592
RA_OF_ASC_NODE = 320.2753
ARG_OF_PERICENTER = 62.1392
MEAN_ANOMALY   = 297.9745

EPHEMERIS_TYPE = 0
CLASSIFICATION_TYPE = U
NORAD_CAT_ID   = 66933
ELEMENT_SET_NO = 999
REV_AT_EPOCH   = 486
BSTAR          = .21679E-2
MEAN_MOTION_DOT = .122147E-2
MEAN_MOTION_DDOT = 0

CCSDS_OMM_VERS = 2.0
CREATION_DATE  = 
ORIGINATOR     = 

OBJECT_NAME    = STARLINK-36153
OBJECT_ID      = 2025-286K
CENTER_NAME    = EARTH
REF_FRAME      = TEME
TIME_SYSTEM    = UTC
MEAN_ELEMENT_THEORY = SGP/SGP4

EPOCH          = 2025-12-31T02:14:45.833856
MEAN_MOTION    = 15.48834956
ECCENTRICITY   = .0004479
INCLINATION    = 53.1597
RA_OF_ASC_NODE = 319.9659
ARG_OF_PERICENTER = 2.0537
MEAN_ANOMALY   = 358.0490

EPHEMERIS_TYPE = 0
CLASSIFICATION_TYPE = U
NORAD_CAT_ID   = 66934
ELEMENT_SET_NO = 999
REV_AT_EPOCH   = 487
BSTAR          = -.23348E-2
MEAN_MOTION_DOT = -.126176E-2
MEAN_MOTION_DDOT = 0

